CUTE-1 (CO-55)          
1 27844U 03031E   25354.88014261  .00000268  00000+0  13540-3 0  9992
2 27844  98.6761   0.6781 0009353 349.9146  10.1843 14.24185723166290
CUBESAT XI-IV (CO-57)   
1 27848U 03031J   25354.92090424  .00000217  00000+0  11455-3 0  9993
2 27848  98.6791   0.5739 0009581   7.9689 352.1640 14.23492840166019
CUBESAT XI-V            
1 28895U 05043F   25354.66714806  .00001175  00000+0  19558-3 0  9995
2 28895  98.2729 141.8793 0015136  54.6634 305.5985 14.71926340 75484
CUTE-1.7+APD II (CO-65) 
1 32785U 08021C   25351.68477250  .00005656  00000+0  38073-3 0  9996
2 32785  97.8081 324.8433 0007829 290.5969  69.4418 15.07103756957832
CANX-2                  
1 32790U 08021H   25354.88507392  .00003842  00000+0  28370-3 0  9992
2 32790  97.8432 326.6353 0009556 289.8320  70.1875 15.03835512957991
SEEDS II (CO-66)        
1 32791U 08021J   25354.90657985  .00012320  00000+0  48895-3 0  9995
2 32791  97.7446 340.3339 0002290 169.9965 190.1318 15.25504942960043
SWISSCUBE               
1 35932U 09051B   25354.64161194  .00000889  00000+0  18714-3 0  9996
2 35932  98.4147 254.3640 0007948  53.3074 306.8855 14.61977830863065
BEESAT-1                
1 35933U 09051C   25354.97301760  .00000766  00000+0  16509-3 0  9992
2 35933  98.4077 254.6970 0006495  65.3103 294.8773 14.61295870863151
ITUPSAT1                
1 35935U 09051E   25354.67251551  .00000678  00000+0  15127-3 0  9990
2 35935  98.4167 253.7630 0008752  73.8851 286.3311 14.60048936862687
TISAT 1                 
1 36799U 10035E   25354.78975602  .00011683  00000+0  48926-3 0  9996
2 36799  98.0614 281.7727 0004122 116.0164 244.1496 15.23718169840461
AEROCUBE 4.5A           
1 38767U 12048K   25354.88705614  .00035861  00000+0  59642-3 0  9995
2 38767  64.6429 291.5930 0065314 229.2553 130.2906 15.49437412344732
STRAND-1                
1 39090U 13009E   25354.74659386  .00000242  00000+0  96043-4 0  9994
2 39090  98.3822 174.4328 0009489  49.3654 310.8356 14.37011213671435
BRITE-AUSTRIA           
1 39091U 13009F   25354.47609889  .00000151  00000+0  66124-4 0  9994
2 39091  98.3887 173.3971 0011159  57.4179 302.8083 14.36439927671396
NEE-01 PEGASO           
1 39151U 13018B   25352.85952132  .00002999  00000+0  29844-3 0  9992
2 39151  98.0962 126.5107 0013680  42.4136 317.8137 14.92388794683793
POPACS 1                
1 39268U 13055D   25352.03618346  .00218872  15221-4  59136-3 0  9990
2 39268  80.9527 204.6657 0108876  27.1470 333.5427 15.84713577644416
POPACS 2                
1 39269U 13055E   25354.45206930  .00016874  00000+0  30412-3 0  9999
2 39269  80.9930 347.8035 0446928  45.5980 318.0917 14.83693510636637
POPACS 3                
1 39270U 13055F   25354.89602313  .00008719  00000+0  21636-3 0  9991
2 39270  81.0044  61.9429 0566697 251.4889 102.3950 14.52001724612642
ZACUBE-1 (TSHEPISOSAT)  
1 39417U 13066B   25351.39749824  .00003280  00000+0  27002-3 0  9998
2 39417  97.8056 307.9496 0042001 132.1904 228.2897 14.99124350653477
WNISAT-1                
1 39423U 13066H   25354.42065850  .00000563  00000+0  11098-3 0  9991
2 39423  97.6932 151.5829 0165393  75.1510 286.7944 14.57656418640687
TRITON-1                
1 39427U 13066M   25354.95404854  .00001568  00000+0  19681-3 0  9996
2 39427  97.8329 263.8754 0093494  94.6344 266.5554 14.80526262647702
GOMX-1                  
1 39430U 13066Q   25354.87320773  .00002064  00000+0  32081-3 0  9999
2 39430  97.6582 201.4900 0129182 290.3130  68.4233 14.68622260643731
CUBEBUG-2 (LO-74)       
1 39440U 13066AA  25351.56788106  .00003439  00000+0  33426-3 0  9992
2 39440  97.8708 295.2332 0058016 269.4523  90.0047 14.92015584649893
NEE-02 KRYSAOR          
1 39441U 13066AB  25351.76100244  .00002517  00000+0  28598-3 0  9996
2 39441  97.8738 287.5718 0066127 305.4504  54.0549 14.85627194649256
FUNCUBE-1 (AO-73)       
1 39444U 13066AE  25354.89378081  .00005378  00000+0  36566-3 0  9994
2 39444  97.8080 318.2728 0041190  89.3089 271.2857 15.06077492652793
UWE-3                   
1 39446U 13066AG  25354.78555617  .00002126  00000+0  19443-3 0  9999
2 39446  97.8487 305.1413 0050185 192.4697 167.5285 14.95160797650908
BRITE-CA1 (TORONTO)     
1 40020U 14033L   25354.86411663  .00000902  00000+0  14386-3 0  9996
2 40020  97.9498 122.4188 0080279 127.3193 233.5366 14.72232124615976
DUCHIFAT-1              
1 40021U 14033M   25354.63302552  .00025353  00000+0  61228-3 0  9992
2 40021  98.0768  27.2741 0006720   9.5760 350.5612 15.41157086628064
NANOSATC-BR1            
1 40024U 14033Q   25354.86299875  .00011654  00000+0  47180-3 0  9993
2 40024  98.0885   7.1649 0005814  84.2642 275.9257 15.24854787626744
QB50P1                  
1 40025U 14033R   25354.87839906  .00006709  00000+0  36692-3 0  9991
2 40025  98.0963 348.9906 0011003 110.7157 249.5253 15.14589330626007
QB50P2                  
1 40032U 14033Y   25354.88715299  .00006067  00000+0  35772-3 0  9993
2 40032  98.0646 336.1946 0009784  67.2012 293.0249 15.11941970625697
PERSEUS-M2              
1 40037U 14033AD  25354.91341142  .00001195  00000+0  11553-3 0  9992
2 40037  97.9761 297.1566 0012189 164.5819 195.5774 14.94722118624140
PERSEUS-M1              
1 40039U 14033AF  25354.76372245  .00001512  00000+0  14442-3 0  9998
2 40039  97.9472 291.2763 0012051 162.5093 197.6544 14.94783500623975
POLYITAN-1              
1 40042U 14033AJ  25354.48721054  .00012850  00000+0  50361-3 0  9994
2 40042  98.1070 359.7083 0010166  57.4698 302.7519 15.25884699626272
TIGRISAT                
1 40043U 14033AK  25354.85942644  .00001711  00000+0  20702-3 0  9996
2 40043  97.7569 144.3443 0049145 300.4200  59.2163 14.84158448619167
AEROCUBE 6A             
1 40045U 14033AM  25354.74565056  .00005667  00000+0  51077-3 0  9997
2 40045  97.7041 159.0912 0039215 252.4145 107.2791 14.95376679619924
AEROCUBE 6B             
1 40046U 14033AN  25354.71325335  .00004632  00000+0  40487-3 0  9993
2 40046  97.7016 158.5067 0038401 244.9903 114.7329 14.96692447620035
CANX-4                  
1 40055U 14034C   25354.59200977  .00000846  00000+0  11706-3 0  9999
2 40055  98.3356 218.1041 0011921 221.4537 138.5770 14.80806841618090
CANX-5                  
1 40056U 14034D   25354.86274298  .00000826  00000+0  11438-3 0  9997
2 40056  98.3358 218.4185 0011921 220.7533 139.2787 14.80823364608941
UKUBE-1                 
1 40074U 14037F   25354.54012991  .00006139  00000+0  38368-3 0  9999
2 40074  98.4148 334.6313 0003358  65.4691 294.6885 15.09875625621564
BRITE-PL2 (HEWELIUSZ)   
1 40119U 14049B   25354.77261265  .00001688  00000+0  16498-3 0  9991
2 40119  97.8998 100.6780 0013859 346.6447  13.4404 14.93687698614805
AEROCUBE 5C             
1 40965U 15058B   25354.67478553  .00002612  00000+0  24026-3 0  9994
2 40965  64.7685  97.4404 0136853 133.1415 228.1237 14.90231511339045
AEROCUBE 7              
1 40966U 15058C   25354.95447015  .00003268  00000+0  27470-3 0  9999
2 40966  64.7641  82.3954 0127061 132.5903 228.6015 14.94052188339311
FOX-1A (AO-85)          
1 40967U 15058D   25354.66304018  .00002696  00000+0  25250-3 0  9991
2 40967  64.7758 113.2733 0134049 126.9444 234.4034 14.89721263 86968
SINOD-D 1               
1 40968U 15058E   25354.68356601  .00003418  00000+0  28895-3 0  9990
2 40968  64.7763  97.2037 0122412 124.9825 236.2856 14.94166583 89975
SNAP-3 ALICE            
1 40970U 15058G   25354.41805586  .00026523  00000+0  77032-3 0  9994
2 40970  64.7607 348.6252 0043734 115.9353 244.6298 15.34463745 89251
LMRST-SAT               
1 40971U 15058H   25354.70845431  .00002529  00000+0  23865-3 0  9995
2 40971  64.7760 109.1446 0136466 128.7501 232.5900 14.89372801 86961
SNAP-3 EDDIE            
1 40972U 15058J   25354.39654837  .00027354  00000+0  77154-3 0  9992
2 40972  64.7530 340.5309 0046748 120.1083 240.4697 15.35222758 91379
PROPCUBE 3              
1 40973U 15058K   25354.69827677  .00002938  00000+0  25558-3 0  9992
2 40973  64.7699  89.5943 0129543 130.7620 230.4824 14.92763799 88148
BISONSAT                
1 40974U 15058L   25354.48248133  .00006912  00000+0  38372-3 0  9998
2 40974  64.7621  29.4002 0085920 125.8944 235.0193 15.11392197 88565
SNAP-3 JIMI             
1 40975U 15058M   25354.51890597  .00003854  00000+0  28465-3 0  9994
2 40975  64.7669  64.0863 0111854 128.8781 232.2379 14.99905132 87407
PROPCUBE 1 (FLORA)      
1 40976U 15058N   25354.83817374  .00002721  00000+0  26489-3 0  9998
2 40976  64.7747 127.5135 0135858 130.8587 230.4393 14.88041945 89712
SINOD-D 3               
1 40977U 15058P   25354.49257324  .00003833  00000+0  33620-3 0  9994
2 40977  64.7733 113.1613 0124418 129.6418 231.5754 14.92376888 88072
HORYU-4                 
1 41340U 16012D   25354.01968620  .00034530  00000+0  56476-3 0  9998
2 41340  30.9939 259.9732 0006824 304.4738  55.5266 15.51230224542682
RAVAN                   
1 41849U 16067B   25354.58418150  .00019943  00000+0  50523-3 0  9990
2 41849  98.0161 220.4657 0005697 280.1871  79.8730 15.39759212500084
CELTEE 1                
1 41850U 16067C   25354.58065218  .00004095  00000+0  20907-3 0  9990
2 41850  98.0866 203.9720 0002182 100.1151 260.0327 15.17340845498775
OPTICUBE 04             
1 41851U 16067D   25354.06496071  .00001550  00000+0  10342-3 0  9994
2 41851  98.0819 191.9115 0016277   8.3137 351.8356 15.08592688498158
AEROCUBE 8D             
1 41852U 16067E   25354.83728973  .00005231  00000+0  23816-3 0  9999
2 41852  98.0887 206.5552 0004809  44.4572 315.7047 15.21182387498921
AEROCUBE 8C             
1 41853U 16067F   25354.82282193  .00005514  00000+0  24940-3 0  9991
2 41853  98.0750 204.0126 0005189 332.1044  27.9911 15.21375627498916
CORVUS BC2              
1 42846U 17042X   25354.88393741  .00003376  00000+0  24302-3 0  9992
2 42846  97.3839 158.5528 0013703   6.4931 353.6471 15.04775309460231
